[
  {
    "OBJECT_NAME": "FENGYUN 3E",
    "OBJECT_ID": "2021-062A",
    "EPOCH": "2025-06-14T20:25:54.697728",
    "MEAN_MOTION": 14.19867334,
    "ECCENTRICITY": 0.0002744,
    "INCLINATION": 98.7414,
    "RA_OF_ASC_NODE": 168.5156,
    "ARG_OF_PERICENTER": 77.4528,
    "MEAN_ANOMALY": 282.6956,
    "EPHEMERIS_TYPE": 0,
    "CLASSIFICATION_TYPE": "U",
    "NORAD_CAT_ID": 49008,
    "ELEMENT_SET_NO": 999,
    "REV_AT_EPOCH": 20445,
    "BSTAR": 1.7315e-05,
    "MEAN_MOTION_DOT": -7e-08,
    "MEAN_MOTION_DDOT": 0
  },
  {
    "OBJECT_NAME": "GOES 18",
    "OBJECT_ID": "2022-021A",
    "EPOCH": "2025-06-14T01:12:42.304032",
    "MEAN_MOTION": 1.00271837,
    "ECCENTRICITY": 4.05e-05,
    "INCLINATION": 0.0493,
    "RA_OF_ASC_NODE": 133.0001,
    "ARG_OF_PERICENTER": 17.0851,
    "MEAN_ANOMALY": 353.6923,
    "EPHEMERIS_TYPE": 0,
    "CLASSIFICATION_TYPE": "U",
    "NORAD_CAT_ID": 51850,
    "ELEMENT_SET_NO": 999,
    "REV_AT_EPOCH": 290,
    "BSTAR": 0,
    "MEAN_MOTION_DOT": 1.11e-06,
    "MEAN_MOTION_DDOT": 0
  },
  {
    "OBJECT_NAME": "NOAA 21 (JPSS-2)",
    "OBJECT_ID": "2022-150A",
    "EPOCH": "2025-06-14T19:25:38.266752",
    "MEAN_MOTION": 14.19538973,
    "ECCENTRICITY": 0.0002222,
    "INCLINATION": 98.7274,
    "RA_OF_ASC_NODE": 104.6071,
    "ARG_OF_PERICENTER": 128.8564,
    "MEAN_ANOMALY": 231.281,
    "EPHEMERIS_TYPE": 0,
    "CLASSIFICATION_TYPE": "U",
    "NORAD_CAT_ID": 54234,
    "ELEMENT_SET_NO": 999,
    "REV_AT_EPOCH": 13442,
    "BSTAR": 5.3624e-05,
    "MEAN_MOTION_DOT": 6.9e-07,
    "MEAN_MOTION_DDOT": 0
  },
  {
    "OBJECT_NAME": "METEOSAT-12 (MTG-I1)",
    "OBJECT_ID": "2022-170C",
    "EPOCH": "2025-06-14T20:42:29.975616",
    "MEAN_MOTION": 1.00273174,
    "ECCENTRICITY": 0.0001284,
    "INCLINATION": 0.6618,
    "RA_OF_ASC_NODE": 34.2371,
    "ARG_OF_PERICENTER": 60.807,
    "MEAN_ANOMALY": 118.6768,
    "EPHEMERIS_TYPE": 0,
    "CLASSIFICATION_TYPE": "U",
    "NORAD_CAT_ID": 54743,
    "ELEMENT_SET_NO": 999,
    "REV_AT_EPOCH": 928,
    "BSTAR": 0,
    "MEAN_MOTION_DOT": 6e-08,
    "MEAN_MOTION_DDOT": 0
  },
  {
    "OBJECT_NAME": "TIANMU-1 03",
    "OBJECT_ID": "2023-039A",
    "EPOCH": "2025-06-14T20:16:42.517056",
    "MEAN_MOTION": 15.35378738,
    "ECCENTRICITY": 0.0003331,
    "INCLINATION": 97.5013,
    "RA_OF_ASC_NODE": 324.4799,
    "ARG_OF_PERICENTER": 3.5782,
    "MEAN_ANOMALY": 356.5485,
    "EPHEMERIS_TYPE": 0,
    "CLASSIFICATION_TYPE": "U",
    "NORAD_CAT_ID": 55973,
    "ELEMENT_SET_NO": 999,
    "REV_AT_EPOCH": 12426,
    "BSTAR": 0.00029629,
    "MEAN_MOTION_DOT": 0.00010103,
    "MEAN_MOTION_DDOT": 0
  },
  {
    "OBJECT_NAME": "TIANMU-1 04",
    "OBJECT_ID": "2023-039B",
    "EPOCH": "2025-06-14T17:26:00.286944",
    "MEAN_MOTION": 15.3561117,
    "ECCENTRICITY": 0.0004005,
    "INCLINATION": 97.4941,
    "RA_OF_ASC_NODE": 323.6454,
    "ARG_OF_PERICENTER": 354.8086,
    "MEAN_ANOMALY": 5.3115,
    "EPHEMERIS_TYPE": 0,
    "CLASSIFICATION_TYPE": "U",
    "NORAD_CAT_ID": 55974,
    "ELEMENT_SET_NO": 999,
    "REV_AT_EPOCH": 12424,
    "BSTAR": 0.00029358,
    "MEAN_MOTION_DOT": 0.00010085,
    "MEAN_MOTION_DDOT": 0
  },
  {
    "OBJECT_NAME": "TIANMU-1 05",
    "OBJECT_ID": "2023-039C",
    "EPOCH": "2025-06-14T21:07:05.764512",
    "MEAN_MOTION": 15.35355685,
    "ECCENTRICITY": 0.0003711,
    "INCLINATION": 97.4989,
    "RA_OF_ASC_NODE": 324.2652,
    "ARG_OF_PERICENTER": 26.5239,
    "MEAN_ANOMALY": 333.6194,
    "EPHEMERIS_TYPE": 0,
    "CLASSIFICATION_TYPE": "U",
    "NORAD_CAT_ID": 55975,
    "ELEMENT_SET_NO": 999,
    "REV_AT_EPOCH": 12425,
    "BSTAR": 0.00028379,
    "MEAN_MOTION_DOT": 9.666e-05,
    "MEAN_MOTION_DDOT": 0
  },
  {
    "OBJECT_NAME": "TIANMU-1 06",
    "OBJECT_ID": "2023-039D",
    "EPOCH": "2025-06-14T17:40:52.775616",
    "MEAN_MOTION": 15.35692231,
    "ECCENTRICITY": 0.0003915,
    "INCLINATION": 97.5001,
    "RA_OF_ASC_NODE": 324.4489,
    "ARG_OF_PERICENTER": 19.7783,
    "MEAN_ANOMALY": 340.3612,
    "EPHEMERIS_TYPE": 0,
    "CLASSIFICATION_TYPE": "U",
    "NORAD_CAT_ID": 55976,
    "ELEMENT_SET_NO": 999,
    "REV_AT_EPOCH": 12424,
    "BSTAR": 0.00028458,
    "MEAN_MOTION_DOT": 9.799e-05,
    "MEAN_MOTION_DDOT": 0
  },
  {
    "OBJECT_NAME": "METEOR-M2 3",
    "OBJECT_ID": "2023-091A",
    "EPOCH": "2025-06-14T18:17:01.092480",
    "MEAN_MOTION": 14.2400126,
    "ECCENTRICITY": 0.0004604,
    "INCLINATION": 98.6608,
    "RA_OF_ASC_NODE": 222.176,
    "ARG_OF_PERICENTER": 144.9113,
    "MEAN_ANOMALY": 215.237,
    "EPHEMERIS_TYPE": 0,
    "CLASSIFICATION_TYPE": "U",
    "NORAD_CAT_ID": 57166,
    "ELEMENT_SET_NO": 999,
    "REV_AT_EPOCH": 10222,
    "BSTAR": 2.3352e-05,
    "MEAN_MOTION_DOT": 1e-07,
    "MEAN_MOTION_DDOT": 0
  },
  {
    "OBJECT_NAME": "TIANMU-1 07",
    "OBJECT_ID": "2023-101A",
    "EPOCH": "2025-06-14T20:32:15.378720",
    "MEAN_MOTION": 15.25173203,
    "ECCENTRICITY": 0.0004318,
    "INCLINATION": 97.3099,
    "RA_OF_ASC_NODE": 219.8127,
    "ARG_OF_PERICENTER": 22.7204,
    "MEAN_ANOMALY": 337.4224,
    "EPHEMERIS_TYPE": 0,
    "CLASSIFICATION_TYPE": "U",
    "NORAD_CAT_ID": 57399,
    "ELEMENT_SET_NO": 999,
    "REV_AT_EPOCH": 10556,
    "BSTAR": 0.00022441,
    "MEAN_MOTION_DOT": 5.559e-05,
    "MEAN_MOTION_DDOT": 0
  },
  {
    "OBJECT_NAME": "TIANMU-1 08",
    "OBJECT_ID": "2023-101B",
    "EPOCH": "2025-06-14T21:18:04.772736",
    "MEAN_MOTION": 15.25177251,
    "ECCENTRICITY": 0.0006372,
    "INCLINATION": 97.3087,
    "RA_OF_ASC_NODE": 219.6706,
    "ARG_OF_PERICENTER": 18.6554,
    "MEAN_ANOMALY": 341.4917,
    "EPHEMERIS_TYPE": 0,
    "CLASSIFICATION_TYPE": "U",
    "NORAD_CAT_ID": 57400,
    "ELEMENT_SET_NO": 999,
    "REV_AT_EPOCH": 10556,
    "BSTAR": 0.00024061,
    "MEAN_MOTION_DOT": 5.968e-05,
    "MEAN_MOTION_DDOT": 0
  },
  {
    "OBJECT_NAME": "TIANMU-1 09",
    "OBJECT_ID": "2023-101C",
    "EPOCH": "2025-06-14T20:54:43.941888",
    "MEAN_MOTION": 15.25113862,
    "ECCENTRICITY": 0.0005563,
    "INCLINATION": 97.3042,
    "RA_OF_ASC_NODE": 219.2805,
    "ARG_OF_PERICENTER": 20.9172,
    "MEAN_ANOMALY": 339.2293,
    "EPHEMERIS_TYPE": 0,
    "CLASSIFICATION_TYPE": "U",
    "NORAD_CAT_ID": 57401,
    "ELEMENT_SET_NO": 999,
    "REV_AT_EPOCH": 10556,
    "BSTAR": 0.00023655,
    "MEAN_MOTION_DOT": 5.855e-05,
    "MEAN_MOTION_DDOT": 0
  },
  {
    "OBJECT_NAME": "TIANMU-1 10",
    "OBJECT_ID": "2023-101D",
    "EPOCH": "2025-06-14T20:07:18.500448",
    "MEAN_MOTION": 15.25096758,
    "ECCENTRICITY": 0.000736,
    "INCLINATION": 97.3123,
    "RA_OF_ASC_NODE": 219.9079,
    "ARG_OF_PERICENTER": 16.091,
    "MEAN_ANOMALY": 344.0561,
    "EPHEMERIS_TYPE": 0,
    "CLASSIFICATION_TYPE": "U",
    "NORAD_CAT_ID": 57402,
    "ELEMENT_SET_NO": 999,
    "REV_AT_EPOCH": 10555,
    "BSTAR": 0.00025189,
    "MEAN_MOTION_DOT": 6.295e-05,
    "MEAN_MOTION_DDOT": 7.9874e-09
  },
  {
    "OBJECT_NAME": "FENGYUN 3F",
    "OBJECT_ID": "2023-111A",
    "EPOCH": "2025-06-14T20:14:26.015424",
    "MEAN_MOTION": 14.20046716,
    "ECCENTRICITY": 0.000197,
    "INCLINATION": 98.7268,
    "RA_OF_ASC_NODE": 236.832,
    "ARG_OF_PERICENTER": 107.8729,
    "MEAN_ANOMALY": 252.2663,
    "EPHEMERIS_TYPE": 0,
    "CLASSIFICATION_TYPE": "U",
    "NORAD_CAT_ID": 57490,
    "ELEMENT_SET_NO": 999,
    "REV_AT_EPOCH": 9673,
    "BSTAR": 5.3141e-05,
    "MEAN_MOTION_DOT": 6.9e-07,
    "MEAN_MOTION_DDOT": 0
  }
]