FENGYUN 3E              
1 49008U 21062A   25165.85132752 -.00000007  00000+0  17315-4 0  9992
2 49008  98.7414 168.5156 0002744  77.4528 282.6956 14.19867334204457
GOES 18                 
1 51850U 22021A   25165.05048963  .00000111  00000+0  00000+0 0  9991
2 51850   0.0493 133.0001 0000405  17.0851 353.6923  1.00271837  2907
NOAA 21 (JPSS-2)        
1 54234U 22150A   25165.80947068  .00000069  00000+0  53624-4 0  9997
2 54234  98.7274 104.6071 0002222 128.8564 231.2810 14.19538973134429
METEOSAT-12 (MTG-I1)    
1 54743U 22170C   25165.86284694  .00000006  00000+0  00000+0 0  9995
2 54743   0.6618  34.2371 0001284  60.8070 118.6768  1.00273174  9283
TIANMU-1 03             
1 55973U 23039A   25165.84493654  .00010103  00000+0  29629-3 0  9993
2 55973  97.5013 324.4799 0003331   3.5782 356.5485 15.35378738124260
TIANMU-1 04             
1 55974U 23039B   25165.72639221  .00010085  00000+0  29358-3 0  9991
2 55974  97.4941 323.6454 0004005 354.8086   5.3115 15.35611170124244
TIANMU-1 05             
1 55975U 23039C   25165.87992783  .00009666  00000+0  28379-3 0  9998
2 55975  97.4989 324.2652 0003711  26.5239 333.6194 15.35355685124251
TIANMU-1 06             
1 55976U 23039D   25165.73672194  .00009799  00000+0  28458-3 0  9990
2 55976  97.5001 324.4489 0003915  19.7783 340.3612 15.35692231124242
METEOR-M2 3             
1 57166U 23091A   25165.76181820  .00000010  00000+0  23352-4 0  9991
2 57166  98.6608 222.1760 0004604 144.9113 215.2370 14.24001260102228
TIANMU-1 07             
1 57399U 23101A   25165.85573355  .00005559  00000+0  22441-3 0  9999
2 57399  97.3099 219.8127 0004318  22.7204 337.4224 15.25173203105566
TIANMU-1 08             
1 57400U 23101B   25165.88755524  .00005968  00000+0  24061-3 0  9999
2 57400  97.3087 219.6706 0006372  18.6554 341.4917 15.25177251105562
TIANMU-1 09             
1 57401U 23101C   25165.87134192  .00005855  00000+0  23655-3 0  9994
2 57401  97.3042 219.2805 0005563  20.9172 339.2293 15.25113862105563
TIANMU-1 10             
1 57402U 23101D   25165.83840857  .00006295  79874-8  25189-3 0  9990
2 57402  97.3123 219.9079 0007360  16.0910 344.0561 15.25096758105552
FENGYUN 3F              
1 57490U 23111A   25165.84335666  .00000069  00000+0  53141-4 0  9995
2 57490  98.7268 236.8320 0001970 107.8729 252.2663 14.20046716 96734
